OPS 6582 (TRANSIT 5B-5) 
1 00965U 64083D   24251.62478422  .00000244  00000+0  32841-3 0  9990
2 00965  90.0512 198.7025 0041971  14.4509 159.2017 13.56904512955781
LES-1                   
1 01002U 65008C   24251.34186270  .00000008  00000+0  15795-4 0  9995
2 01002  32.1405 139.4200 0014291  94.3467 265.8663  9.88354312152095
SOLRAD 7B               
1 01291U 65016D   24251.51904526  .00000262  00000+0  23342-3 0  9993
2 01291  70.0795 173.0901 0023651 253.7925 106.0578 13.94818182 26385
SECOR 4 (EGRS 4)        
1 01315U 65027B   24251.61069841  .00000114  00000+0  39294-3 0  9994
2 01315  90.2475   1.1192 0032866  91.5214 281.9669 12.92645236803260
TIROS 10                
1 01430U 65051A   24251.59433788  .00001273  00000+0  40246-3 0  9997
2 01430  98.4445   5.3377 0055048 223.3690 136.3161 14.41033313102621
ALOUETTE 2              
1 01804U 65098A   24251.58549925  .00002684  00000+0  87999-3 0  9996
2 01804  79.7975 107.1646 1334866 104.6371 270.6162 12.27233883599799
OV3-3                   
1 02389U 66070A   24251.56192194  .00043718  00000+0  21475-2 0  9995
2 02389  81.3353 173.6728 1108298  13.4981 349.3372 13.23003225512512
SECOR 7 (EGRS 7)        
1 02411U 66077B   24251.50648263 -.00000022  00000+0 -11477-1 0  9998
2 02411  90.3223 269.8877 0014058 354.4106   5.6587  8.59615752821726
ERS 15                  
1 02412U 66077C   24250.98489911  .00000002  00000+0  00000+0 0  9997
2 02412  90.3226 269.6788 0008457   3.3624 356.7283  8.59077490334790
ISIS 1                  
1 03669U 69009A   24251.42328985  .00000491  00000+0  33460-3 0  9995
2 03669  88.4419 215.1320 1710313 115.7837 262.9402 11.29960530286593
SECOR 13 (EGRS 13)      
1 03891U 69037B   24251.61238003  .00000021  00000+0  11063-3 0  9999
2 03891  99.7389 137.1500 0040077  39.8994  18.7914 13.42933969714837
ATS 5                   
1 04068U 69069A   24251.61121042 -.00000244  00000+0  00000+0 0  9998
2 04068   1.6207 266.2256 0004173 347.1390 112.6697  0.99497480 39887
OPS 7613 (P/L 4)        
1 04237U 69082E   24251.61535274  .00000355  00000+0  29772-3 0  9990
2 04237  70.0154  47.0847 0023092 256.5700 177.0541 13.95800066795932
OPS 7613 (P/L 1)        
1 04256U 69082B   24251.49061136  .00000469  00000+0  36179-3 0  9993
2 04256  70.0079 276.1144 0019961 201.4383 158.5891 13.98845644799873
SHINSEI (MS-F2)         
1 05485U 71080A   24251.47941327  .00000053  00000+0  80355-4 0  9991
2 05485  32.0551  25.6884 0639749  76.4988 290.6034 12.74199634466605
PROSPERO (BLACK ARROW)  
1 05580U 71093A   24251.57596939  .00004124  00000+0  91178-3 0  9994
2 05580  82.0408 138.1863 0511949 280.9264  73.4725 13.98585482657887
OPS 7898 (P/L 2)        
1 05680U 71110C   24251.45563323  .00000091  00000+0  14863-3 0  9998
2 05680  69.9871 259.5594 0010620 265.2387  94.7495 13.74658590259194
NOAA 2 (ITOS-D)         
1 06235U 72082A   24251.56001240 -.00000025  00000+0  13730-3 0  9991
2 06235 102.0205 251.4926 0003946 329.9181 146.3584 12.53185651373823
OSCAR 7 (AO-7)          
1 07530U 74089B   24251.51448895 -.00000027  00000+0  12349-3 0  9992
2 07530 101.9848 246.9495 0011881 288.2115 197.2975 12.53679061279595
TIROS N                 
1 11060U 78096A   24251.57430710  .00000840  00000+0  42327-3 0  9991
2 11060  98.5262 288.8700 0009674 322.3883  37.6616 14.18912937586890
PHASE 3B (AO-10)        
1 14129U 83058B   24248.55178076  .00000279  00000+0  00000+0 0  9996
2 14129  27.3882 326.5567 6032539 298.2988  14.4117  2.05864647282087
HILAT                   
1 14154U 83063A   24251.51648161  .00002486  00000+0  81388-3 0  9991
2 14154  82.0249  42.8419 0041041  92.5171 332.8203 14.37709993154480
UOSAT 2 (UO-11)         
1 14781U 84021B   24251.45564584  .00006177  00000+0  68999-3 0  9995
2 14781  97.7139 218.3189 0008787 153.7262 206.4402 14.87289427160712
NOAA 9                  
1 15427U 84123A   24251.60654552  .00000792  00000+0  41963-3 0  9997
2 15427  99.1229 251.0838 0015210  26.9807  82.5967 14.16677315 51713
GEOSAT                  
1 15595U 85021A   24251.56208977  .00001596  00000+0  55789-3 0  9996
2 15595 108.0510 173.7438 0001194 277.0113  83.0892 14.39159645 69564
EUTELSAT 1-F4 (ECS 4)   
1 18351U 87078B   24251.61866934 -.00000009  00000+0  00000+0 0  9993
2 18351  14.2925 346.6869 0006541  47.4455 218.9818  0.98688041120363
AKEBONO (EXOS-D)        
1 19822U 89016A   24251.55803057  .00381355  26406-4  15933-2 0  9993
2 19822  74.9175  58.0293 0524870  36.8269 326.7783 14.92677634238495
PACSAT (AO-16)          
1 20439U 90005D   24251.57133968  .00000944  00000+0  35842-3 0  9999
2 20439  98.9023 259.0156 0010141 336.4800 138.4515 14.33481180809131
LUSAT (LO-19)           
1 20442U 90005G   24251.51146613  .00001010  00000+0  38081-3 0  9991
2 20442  98.8892 243.9718 0010713 308.3814  51.6406 14.33645651809570
IRS-1B                  
1 21688U 91061A   24251.61905348  .00000610  00000+0  46441-3 0  9990
2 21688  99.3733 233.3759 0023848 326.0530 153.4886 13.97662673578024
COSMOS 2197             
1 22034U 92042A   24251.57080767  .00000043  00000+0  17417-3 0  9991
2 22034  82.5901 282.7597 0011519 311.3305 165.7340 12.64219614483457
PEGASUS R/B             
1 22491U 93009C   24251.25593409  .00005073  00000+0  10755-2 0  9994
2 22491  24.9773 202.2976 0045455 327.3444  32.4261 14.55850014675021
EYESAT A (AO-27)        
1 22825U 93061C   24251.44173741  .00000613  00000+0  25241-3 0  9999
2 22825  98.7809 305.0473 0008234 191.3887 168.7110 14.30571526614377
ITAMSAT (IO-26)         
1 22826U 93061D   24251.39818007  .00000704  00000+0  28505-3 0  9992
2 22826  98.7755 304.8696 0009039 176.7699 183.3543 14.30960996614651
RADIO ROSTO (RS-15)     
1 23439U 94085A   24251.59532405 -.00000039  00000+0  94378-4 0  9991
2 23439  64.8141 270.5018 0147825 128.2148 233.2191 11.27578450222886
JAS-2 (FO-29)           
1 24278U 96046B   24251.41259102  .00000193  00000+0  23442-3 0  9996
2 24278  98.5792 175.2843 0349715 335.4646  23.0193 13.53206942385554
FORTE                   
1 24920U 97047A   24251.59011269  .00001511  00000+0  63940-3 0  9993
2 24920  69.9549  36.1698 0019606  79.0184 281.3142 14.27273735406254
NOAA 15                 
1 25338U 98030A   24251.57456879  .00000842  00000+0  36553-3 0  9994
2 25338  98.5652 276.9707 0011465  85.2789 274.9700 14.26696310368938
TECHSAT 1B (GO-32)      
1 25397U 98043D   24251.51209082  .00000622  00000+0  29052-3 0  9991
2 25397  98.9308 219.4997 0000358 332.4092  27.7067 14.24114064359132
ISS (ZARYA)             
1 25544U 98067A   24251.50686233  .00032814  00000+0  60758-3 0  9993
2 25544  51.6389 267.5581 0007056 323.5900 201.5975 15.48680455471319
ORSTED                  
1 25635U 99008B   24251.57905717  .00003085  00000+0  71065-3 0  9999
2 25635  96.4621 297.4052 0136291 102.8906 258.7557 14.50213721348042
LANDSAT 7               
1 25682U 99020A   24251.57422755  .00002121  00000+0  44233-3 0  9998
2 25682  97.8848 274.4698 0001834  92.8973  72.9361 14.60906325351163
ORBCOMM FM36            
1 25984U 99065E   24251.59438623  .00006371  00000+0  22068-2 0  9997
2 25984  45.0409 348.4890 0004385 288.3208  71.7163 14.36273507293769
DMSP 5D-3 F15 (USA 147) 
1 25991U 99067A   24251.62391956  .00000864  00000+0  45189-3 0  9999
2 25991  99.0647 268.6481 0010646  47.3097  61.3972 14.17106753278915
OPAL (OO-38)            
1 26063U 00004C   24251.50559997  .00001068  00000+0  37379-3 0  9990
2 26063 100.2251  56.9149 0036607  64.9318 295.5655 14.37461919290213
IMAGE                   
1 26113U 00017A   24251.20909903 -.00000248  00000+0 -17133-1 0  9998
2 26113  94.0824 304.9428 7580918   6.0728 359.7118  1.68652338150577
CLUSTER II-FM7 (SAMBA)  
1 26410U 00041A   24253.01340469  .00000450  00000+0  00000+0 0  9998
2 26410 140.2563   0.5536 7702773 215.6331   0.2051  0.44223266 17420
CLUSTER II-FM6 (SALSA)  
1 26411U 00041B   24252.84967699  .00055456 -32455-3  00000+0 0  9999
2 26411 150.0716  39.2521 9137808 255.7706   0.1507  0.44420089 28482
CLUSTER II-FM5 (RUMBA)  
1 26463U 00045A   24254.11159835  .00005453  00000+0  00000+0 0  9995
2 26463 152.0903  28.6072 8729016 244.5295   0.1964  0.42903205 17342
CLUSTER II-FM8 (TANGO)  
1 26464U 00045B   24253.01336768  .00000450  00000+0  00000+0 0  9998
2 26464 140.2641   0.5559 7702771 215.6379   0.1884  0.44220112 17432
MEGSAT-1                
1 26546U 00057B   24251.58673825  .00011308  00000+0  95783-3 0  9990
2 26546  64.5553 334.5674 0017912 232.1344 127.8150 14.98219586300363
PHASE 3D (AO-40)        
1 26609U 00072B   24251.57289227 -.00000014  00000+0  00000+0 0  9992
2 26609   7.0409  84.9155 7982620 338.4611   1.3811  1.25589105109377
ODIN                    
1 26702U 01007A   24251.59544891  .00029717  00000+0  11551-2 0  9994
2 26702  97.4768 266.5958 0006953   6.6848 353.4481 15.25978823289452
OMNI-M1                 
1 26857U 01026A   24251.53422237 -.00000044  00000+0  00000+0 0  9996
2 26857  44.9901  34.1532 0014574 243.1320 116.7488  3.92402157180154
PCSAT (NO-44)           
1 26931U 01043C   24251.38270136  .00000872  00000+0  35984-3 0  9991
2 26931  67.0502 119.1905 0007726 268.7309  91.2908 14.31357581197718
PROBA-1                 
1 26958U 01049B   24251.56426744  .00009844  00000+0  72618-3 0  9997
2 26958  97.9193 229.7532 0060884 146.0951 214.4189 15.01994283246195
SPOT 5                  
1 27421U 02021A   24251.60305118  .00002965  00000+0  64175-3 0  9996
2 27421  98.0800 305.1494 0133218 126.9780 234.3699 14.53530243168720
FENGYUN 1D              
1 27431U 02024B   24251.55283132  .00000360  00000+0  22964-3 0  9992
2 27431  99.0481 290.5975 0014491 261.8745  98.0781 14.10024208148209
SAUDISAT 1C (SO-50)     
1 27607U 02058C   24251.54377540  .00005495  00000+0  74519-3 0  9997
2 27607  64.5569 328.3099 0026173  66.3827 294.0022 14.79586699168507
